{"type":"FeatureCollection","features":[{"type":"Feature","properties":{"TS":"Launglon","TS_MMR":"လောင်းလုံး","TS_PCODE":"MMR006002","DT":"Dawei","area_km2":789.0,"lx":98.152,"ly":13.876,"sites":43},"geometry":{"type":"MultiPolygon","coordinates":[[[[98.1322,13.5315],[98.1306,13.5294],[98.1298,13.5296],[98.1284,13.5314],[98.1278,13.5335],[98.1309,13.5346],[98.1323,13.5341],[98.1322,13.5315]]],[[[98.2001,13.5977],[98.1996,13.5979],[98.1996,13.6002],[98.202,13.6043],[98.2037,13.6096],[98.2045,13.6146],[98.2067,13.6129],[98.2082,13.6094],[98.2082,13.6073],[98.2061,13.6033],[98.2064,13.6005],[98.2055,13.5994],[98.2031,13.5993],[98.2001,13.5977]]],[[[98.1924,13.6342],[98.1941,13.6332],[98.1956,13.6344],[98.1979,13.6328],[98.1961,13.6294],[98.1957,13.6253],[98.1938,13.6221],[98.1949,13.6189],[98.1929,13.6174],[98.1923,13.6133],[98.1904,13.6131],[98.1887,13.612],[98.1886,13.6134],[98.1871,13.6147],[98.1874,13.6175],[98.1859,13.6198],[98.1847,13.6194],[98.1835,13.6202],[98.1824,13.6223],[98.1824,13.6242],[98.181,13.6251],[98.1796,13.6281],[98.1795,13.6337],[98.1802,13.6358],[98.1826,13.6398],[98.1856,13.6425],[98.1872,13.6453],[98.193,13.6497],[98.1934,13.648],[98.1914,13.644],[98.19,13.6426],[98.1896,13.6393],[98.1899,13.6375],[98.191,13.6367],[98.1924,13.6342]]],[[[98.1945,13.6692],[98.1934,13.6622],[98.1919,13.6607],[98.1924,13.6572],[98.192,13.6564],[98.1913,13.6563],[98.1871,13.6587],[98.1873,13.66],[98.1843,13.6678],[98.1846,13.6684],[98.1889,13.6686],[98.1907,13.6694],[98.1945,13.6692]]],[[[98.2232,13.7651],[98.2224,13.7647],[98.2206,13.7669],[98.2201,13.771],[98.2256,13.7896],[98.2298,13.8094],[98.231,13.8111],[98.2315,13.8102],[98.2317,13.7968],[98.2304,13.7832],[98.2269,13.7726],[98.2232,13.7651]]],[[[98.0628,13.8116],[98.0676,13.8115],[98.0677,13.8105],[98.0669,13.8079],[98.0607,13.8024],[98.058,13.8045],[98.0605,13.8082],[98.06,13.8108],[98.0622,13.8126],[98.0628,13.8116]]],[[[98.2304,13.8176],[98.2288,13.8148],[98.2284,13.8151],[98.2281,13.8191],[98.2287,13.8213],[98.2309,13.8235],[98.2304,13.8176]]],[[[98.2288,13.8279],[98.228,13.8274],[98.2283,13.8343],[98.2299,13.8384],[98.2309,13.8389],[98.2317,13.8348],[98.2312,13.8315],[98.2288,13.8279]]],[[[98.196,13.8344],[98.1958,13.8319],[98.1956,13.8327],[98.1951,13.8317],[98.1944,13.8288],[98.1913,13.825],[98.1921,13.8285],[98.1982,13.8418],[98.2008,13.8505],[98.2038,13.8562],[98.2057,13.8571],[98.206,13.856],[98.2049,13.8527],[98.2017,13.8448],[98.1992,13.8401],[98.1981,13.8394],[98.1986,13.8385],[98.1976,13.8359],[98.196,13.8344]]],[[[98.2018,13.7557],[98.198,13.7518],[98.1974,13.752],[98.196,13.7546],[98.1933,13.7559],[98.1907,13.7587],[98.1884,13.7631],[98.1858,13.7736],[98.1853,13.7847],[98.1944,13.8073],[98.2103,13.8513],[98.2175,13.8653],[98.2196,13.8679],[98.2259,13.8611],[98.2267,13.8527],[98.2264,13.8487],[98.2233,13.838],[98.2216,13.8293],[98.22,13.8148],[98.2186,13.8079],[98.2152,13.7965],[98.2098,13.7843],[98.2034,13.7595],[98.2018,13.7557]]],[[[98.2069,13.8589],[98.2054,13.8583],[98.2049,13.8589],[98.2078,13.8672],[98.2108,13.8693],[98.2107,13.8671],[98.2069,13.8589]]],[[[97.9139,13.8743],[97.918,13.8739],[97.9164,13.8685],[97.9182,13.8653],[97.92,13.8646],[97.9231,13.8668],[97.9259,13.8611],[97.9266,13.8602],[97.9281,13.8603],[97.9266,13.8583],[97.9282,13.8524],[97.9266,13.8453],[97.926,13.8442],[97.9244,13.8438],[97.9223,13.8398],[97.9236,13.8386],[97.9256,13.8398],[97.9269,13.8355],[97.925,13.8342],[97.9245,13.8311],[97.9252,13.8298],[97.9251,13.8278],[97.9267,13.8268],[97.9259,13.8241],[97.9269,13.8203],[97.9254,13.8183],[97.9243,13.8184],[97.9221,13.8204],[97.9194,13.8191],[97.9199,13.8169],[97.9216,13.8135],[97.9209,13.8128],[97.9167,13.8127],[97.9158,13.8111],[97.9161,13.8066],[97.9137,13.8048],[97.9137,13.8016],[97.9125,13.7992],[97.9147,13.7936],[97.9115,13.7877],[97.9103,13.787],[97.9092,13.7874],[97.9036,13.7946],[97.9029,13.799],[97.9009,13.8029],[97.9016,13.8051],[97.9024,13.8056],[97.9041,13.8046],[97.9054,13.8026],[97.9083,13.8022],[97.9094,13.8011],[97.9101,13.8018],[97.9083,13.8051],[97.9069,13.8063],[97.9074,13.8091],[97.9065,13.8104],[97.9041,13.8118],[97.9019,13.8178],[97.9026,13.8194],[97.905,13.8187],[97.9054,13.8201],[97.9041,13.8229],[97.9009,13.8254],[97.9041,13.8284],[97.9068,13.8273],[97.9082,13.8274],[97.9089,13.8281],[97.9063,13.8332],[97.9067,13.8374],[97.9058,13.8396],[97.9083,13.8446],[97.9071,13.8474],[97.9096,13.8544],[97.9089,13.8562],[97.9092,13.8578],[97.9084,13.8595],[97.9084,13.8614],[97.9071,13.8635],[97.9073,13.8647],[97.9095,13.8633],[97.9108,13.8598],[97.9104,13.8563],[97.9116,13.8547],[97.9124,13.8592],[97.9114,13.865],[97.9121,13.8657],[97.9133,13.865],[97.9121,13.8684],[97.9118,13.8713],[97.9139,13.8743]]],[[[98.2302,13.8687],[98.2292,13.8644],[98.2249,13.8699],[98.2243,13.8714],[98.224,13.8796],[98.2248,13.8845],[98.2257,13.8854],[98.2279,13.8845],[98.2289,13.8816],[98.2302,13.8753],[98.2302,13.8687]]],[[[97.9119,13.8864],[97.9139,13.8837],[97.9137,13.8817],[97.9129,13.8806],[97.9117,13.8828],[97.912,13.8836],[97.9113,13.8841],[97.9115,13.8851],[97.9099,13.8859],[97.9086,13.8855],[97.9074,13.889],[97.9059,13.8901],[97.9056,13.8944],[97.9062,13.8953],[97.91,13.8899],[97.9114,13.889],[97.9119,13.8864]]],[[[98.2232,13.9168],[98.2256,13.9142],[98.227,13.9097],[98.2275,13.8982],[98.2268,13.8944],[98.2248,13.8966],[98.2238,13.901],[98.2225,13.9139],[98.2226,13.9161],[98.2232,13.9168]]],[[[98.2365,13.8905],[98.2354,13.8899],[98.2338,13.893],[98.23,13.9224],[98.2273,13.9307],[98.2273,13.9343],[98.2282,13.9359],[98.229,13.9352],[98.2286,13.9316],[98.2301,13.9258],[98.2313,13.9241],[98.2371,13.9194],[98.2394,13.9141],[98.2405,13.9062],[98.2402,13.9027],[98.2365,13.8905]]],[[[97.9166,13.9314],[97.9182,13.9273],[97.9184,13.9212],[97.9194,13.9185],[97.9197,13.9146],[97.9194,13.9131],[97.9173,13.9105],[97.9182,13.9072],[97.917,13.9056],[97.9158,13.8977],[97.9169,13.8961],[97.9173,13.8904],[97.9132,13.8909],[97.9128,13.8915],[97.9144,13.8948],[97.9141,13.8966],[97.9152,13.8994],[97.9133,13.9015],[97.9124,13.9073],[97.9158,13.9145],[97.9141,13.9159],[97.9113,13.9146],[97.9084,13.9151],[97.9092,13.9217],[97.9088,13.9241],[97.9076,13.9255],[97.9079,13.9278],[97.9067,13.9284],[97.905,13.9279],[97.904,13.929],[97.9047,13.9312],[97.9062,13.9304],[97.9082,13.9323],[97.9076,13.9357],[97.9086,13.9378],[97.9075,13.9414],[97.9084,13.944],[97.9099,13.9452],[97.9109,13.945],[97.9124,13.9421],[97.9125,13.9387],[97.9136,13.9351],[97.9166,13.9314]]],[[[98.2161,13.9292],[98.2146,13.9304],[98.2126,13.935],[98.2113,13.9392],[98.2109,13.9458],[98.2096,13.9509],[98.2041,13.9596],[98.2033,13.9631],[98.2033,13.9648],[98.2047,13.9662],[98.2053,13.9679],[98.2099,13.9706],[98.2131,13.9693],[98.2154,13.9666],[98.2215,13.9511],[98.2174,13.9315],[98.2161,13.9292]]],[[[98.2,14.0146],[98.2054,14.0152],[98.2104,14.0132],[98.2209,14.0114],[98.2219,14.0084],[98.2211,14.0046],[98.2203,14.0036],[98.219,14.0042],[98.207,14.0024],[98.2049,14.0069],[98.2028,14.0092],[98.2001,14.0108],[98.1961,14.0151],[98.1882,14.0214],[98.1899,14.0287],[98.1905,14.0345],[98.1899,14.0414],[98.1974,14.0396],[98.1988,14.0386],[98.1994,14.0369],[98.1993,14.0331],[98.1961,14.0271],[98.1961,14.0249],[98.1983,14.0212],[98.197,14.0167],[98.2,14.0146]]],[[[98.0993,14.2155],[98.1238,14.211],[98.1315,14.2116],[98.1393,14.2044],[98.1501,14.2035],[98.1579,14.2009],[98.1625,14.1954],[98.1661,14.1893],[98.1719,14.1859],[98.1759,14.1865],[98.1802,14.1836],[98.185,14.1842],[98.1876,14.1811],[98.192,14.1797],[98.1907,14.1718],[98.1871,14.1646],[98.1901,14.1379],[98.1936,14.1211],[98.194,14.1155],[98.1881,14.1091],[98.1856,14.1074],[98.1756,14.0954],[98.1746,14.0934],[98.1751,14.0883],[98.1758,14.0881],[98.1819,14.0761],[98.1852,14.0663],[98.1858,14.062],[98.1874,14.046],[98.1871,14.0414],[98.1848,14.0414],[98.1857,14.0342],[98.1844,14.0323],[98.185,14.0312],[98.1847,14.0287],[98.1831,14.0236],[98.1854,14.0153],[98.1842,14.0124],[98.1845,14.0102],[98.1878,14.0076],[98.1889,14.0079],[98.1923,14.0042],[98.1944,14.0008],[98.2005,13.9832],[98.2036,13.9791],[98.2092,13.9747],[98.2086,13.9728],[98.2044,13.971],[98.2008,13.9631],[98.2023,13.9561],[98.2057,13.9513],[98.2074,13.9469],[98.2078,13.9362],[98.211,13.9286],[98.216,13.9072],[98.2154,13.8864],[98.2148,13.8842],[98.2078,13.8745],[98.2023,13.863],[98.1974,13.8545],[98.192,13.8392],[98.1899,13.8365],[98.1807,13.8181],[98.1786,13.8156],[98.1732,13.7967],[98.171,13.7726],[98.1711,13.7597],[98.1715,13.7528],[98.1724,13.7498],[98.172,13.7489],[98.173,13.7479],[98.1749,13.7384],[98.1772,13.7328],[98.1796,13.7206],[98.1803,13.7195],[98.1815,13.7195],[98.1804,13.7176],[98.1793,13.7172],[98.1787,13.7156],[98.1794,13.7133],[98.179,13.707],[98.1801,13.7025],[98.1816,13.6996],[98.1814,13.6984],[98.1804,13.6976],[98.1793,13.6978],[98.1786,13.6987],[98.1787,13.6955],[98.1803,13.6948],[98.181,13.692],[98.1823,13.6903],[98.1877,13.6858],[98.1853,13.6819],[98.1862,13.6784],[98.1859,13.6722],[98.1835,13.6705],[98.1822,13.668],[98.1843,13.6616],[98.1841,13.6571],[98.1849,13.6515],[98.184,13.6489],[98.1747,13.6401],[98.17,13.6388],[98.1692,13.6392],[98.1686,13.6408],[98.164,13.638],[98.1634,13.6346],[98.1652,13.6315],[98.1639,13.626],[98.1625,13.6243],[98.1603,13.6252],[98.1552,13.6194],[98.1569,13.6177],[98.1567,13.6115],[98.1553,13.6078],[98.1524,13.6055],[98.1513,13.6033],[98.1526,13.5962],[98.1534,13.5949],[98.1537,13.5898],[98.1534,13.5876],[98.152,13.5849],[98.1518,13.5815],[98.1523,13.5788],[98.1546,13.5755],[98.1556,13.5763],[98.1598,13.572],[98.1603,13.5672],[98.1597,13.5634],[98.1603,13.5619],[98.1625,13.5615],[98.1648,13.5594],[98.1661,13.5598],[98.1677,13.5593],[98.1716,13.5556],[98.1738,13.5545],[98.1754,13.5508],[98.1754,13.5476],[98.1722,13.5414],[98.1696,13.5394],[98.1691,13.5371],[98.168,13.5359],[98.1619,13.5365],[98.1612,13.5375],[98.1593,13.5382],[98.1601,13.5405],[98.1605,13.546],[98.1599,13.5485],[98.1585,13.5508],[98.1601,13.5537],[98.1564,13.5574],[98.153,13.5587],[98.1458,13.56],[98.1371,13.5591],[98.1335,13.5564],[98.1341,13.554],[98.1325,13.55],[98.1349,13.547],[98.1341,13.5446],[98.1264,13.5489],[98.1254,13.5507],[98.1223,13.5531],[98.1245,13.5567],[98.1277,13.558],[98.1279,13.5588],[98.1267,13.5599],[98.1268,13.5608],[98.13,13.5617],[98.132,13.5649],[98.1313,13.5667],[98.1294,13.5672],[98.1303,13.5704],[98.13,13.5717],[98.1273,13.5716],[98.1263,13.5728],[98.1271,13.5758],[98.1262,13.5774],[98.1269,13.5817],[98.1263,13.5831],[98.1243,13.5831],[98.1236,13.5857],[98.1251,13.5874],[98.1234,13.5897],[98.1195,13.5902],[98.1169,13.5929],[98.1229,13.5967],[98.1246,13.5969],[98.1257,13.6003],[98.1274,13.599],[98.1297,13.5996],[98.1307,13.6017],[98.1302,13.6035],[98.1311,13.6051],[98.1324,13.6049],[98.1331,13.6025],[98.1349,13.602],[98.136,13.6007],[98.1409,13.6043],[98.1379,13.6033],[98.1368,13.6041],[98.1359,13.6072],[98.1382,13.6088],[98.1397,13.6106],[98.139,13.6151],[98.1373,13.6172],[98.1355,13.6161],[98.1344,13.6163],[98.1345,13.6197],[98.1333,13.6226],[98.1336,13.6246],[98.128,13.6294],[98.1291,13.6308],[98.1292,13.6325],[98.1276,13.6345],[98.1292,13.6354],[98.1302,13.635],[98.1307,13.6317],[98.1323,13.631],[98.139,13.6316],[98.1428,13.6359],[98.1444,13.6348],[98.1462,13.6352],[98.1477,13.639],[98.1481,13.6422],[98.148,13.6464],[98.1472,13.6479],[98.1484,13.649],[98.1514,13.6489],[98.1509,13.6545],[98.1479,13.6642],[98.1449,13.6706],[98.1404,13.6777],[98.1287,13.6881],[98.1232,13.6914],[98.1199,13.6924],[98.115,13.6927],[98.1132,13.6922],[98.1118,13.69],[98.112,13.6856],[98.1114,13.684],[98.1092,13.6816],[98.1079,13.678],[98.1067,13.6778],[98.1059,13.6784],[98.1047,13.6813],[98.1051,13.6823],[98.1046,13.6854],[98.1058,13.6879],[98.1094,13.689],[98.1095,13.6916],[98.1087,13.6937],[98.1051,13.6981],[98.1036,13.699],[98.1014,13.6989],[98.0996,13.6965],[98.0981,13.6965],[98.0968,13.6976],[98.0963,13.6989],[98.0969,13.7017],[98.0951,13.7041],[98.0935,13.7084],[98.0958,13.7106],[98.0956,13.7124],[98.0939,13.7132],[98.0902,13.7131],[98.0883,13.7149],[98.0888,13.7155],[98.0942,13.7161],[98.0972,13.7174],[98.1011,13.7177],[98.1028,13.7165],[98.1041,13.7168],[98.1055,13.7191],[98.1049,13.7242],[98.1044,13.7251],[98.1019,13.7265],[98.0976,13.7236],[98.0954,13.7239],[98.093,13.7226],[98.0902,13.7229],[98.0854,13.7218],[98.0816,13.7225],[98.0814,13.7235],[98.0836,13.7258],[98.0849,13.726],[98.0871,13.725],[98.0886,13.7265],[98.0884,13.7287],[98.0864,13.7299],[98.0857,13.7318],[98.0887,13.7333],[98.0893,13.7354],[98.0879,13.7369],[98.0851,13.7381],[98.0854,13.7412],[98.0833,13.7426],[98.0838,13.7451],[98.0822,13.7456],[98.0802,13.7443],[98.0788,13.7447],[98.0787,13.7497],[98.0765,13.7518],[98.0779,13.7537],[98.0781,13.7562],[98.0772,13.7576],[98.0752,13.7587],[98.0733,13.7571],[98.0702,13.7575],[98.068,13.7571],[98.0663,13.7614],[98.0712,13.7608],[98.0722,13.7613],[98.073,13.7635],[98.0725,13.7653],[98.0669,13.7653],[98.0662,13.7656],[98.0662,13.7664],[98.0681,13.7684],[98.068,13.7717],[98.0721,13.7721],[98.0768,13.7755],[98.0746,13.7781],[98.0751,13.7809],[98.0723,13.7842],[98.0714,13.7875],[98.0688,13.7886],[98.0671,13.7908],[98.0679,13.7917],[98.0699,13.7922],[98.0704,13.794],[98.0765,13.7986],[98.0771,13.8022],[98.0783,13.8051],[98.086,13.8022],[98.0894,13.7997],[98.0953,13.7981],[98.0977,13.7984],[98.0986,13.8],[98.0981,13.8031],[98.0954,13.8068],[98.0927,13.8094],[98.0896,13.8106],[98.0883,13.8127],[98.0889,13.8144],[98.091,13.8166],[98.0911,13.8253],[98.0925,13.8281],[98.0914,13.8318],[98.0866,13.8363],[98.0877,13.839],[98.0873,13.8421],[98.0884,13.8448],[98.0874,13.8493],[98.0886,13.8544],[98.0917,13.8561],[98.0924,13.8574],[98.0907,13.8608],[98.0889,13.8618],[98.0864,13.8646],[98.0894,13.8655],[98.09,13.8683],[98.0919,13.8694],[98.0938,13.869],[98.0947,13.8698],[98.0954,13.8783],[98.094,13.8801],[98.0938,13.8813],[98.0951,13.8827],[98.0948,13.8848],[98.0983,13.8873],[98.0984,13.8897],[98.0974,13.8923],[98.0946,13.896],[98.0844,13.9065],[98.0766,13.9126],[98.0727,13.9135],[98.0739,13.9146],[98.074,13.9167],[98.0718,13.9224],[98.0738,13.9239],[98.0759,13.9233],[98.0772,13.9244],[98.0777,13.9302],[98.0763,13.9328],[98.0771,13.9341],[98.0775,13.9374],[98.0754,13.9402],[98.0736,13.9409],[98.0725,13.9407],[98.0724,13.9394],[98.0697,13.9388],[98.0691,13.9392],[98.0696,13.9413],[98.0711,13.9426],[98.0713,13.9458],[98.0725,13.9471],[98.0719,13.949],[98.0688,13.9519],[98.0691,13.958],[98.0677,13.9628],[98.069,13.9649],[98.0643,13.9765],[98.0632,13.9781],[98.0591,13.9812],[98.0595,13.9855],[98.0586,13.9878],[98.0608,13.9886],[98.061,13.9897],[98.0605,14.0037],[98.0594,14.0119],[98.0582,14.0168],[98.0566,14.0199],[98.0566,14.0237],[98.0575,14.0251],[98.0566,14.0299],[98.0556,14.0319],[98.0559,14.0337],[98.0572,14.0352],[98.0571,14.0393],[98.058,14.0416],[98.0604,14.0416],[98.0617,14.0431],[98.0629,14.0418],[98.0638,14.0394],[98.0655,14.0396],[98.0682,14.0413],[98.0702,14.0439],[98.0733,14.0448],[98.0754,14.0495],[98.0763,14.0561],[98.0776,14.058],[98.077,14.0681],[98.0751,14.0784],[98.0738,14.0801],[98.072,14.0801],[98.0714,14.0807],[98.0711,14.0862],[98.0727,14.0849],[98.0753,14.0856],[98.0766,14.0843],[98.0775,14.082],[98.0804,14.0812],[98.085,14.0839],[98.0882,14.0871],[98.0912,14.0931],[98.0926,14.1004],[98.0952,14.1063],[98.0986,14.106],[98.1002,14.1069],[98.1002,14.1144],[98.0976,14.1277],[98.0963,14.1294],[98.0854,14.1559],[98.0829,14.1606],[98.0818,14.1646],[98.082,14.1712],[98.0831,14.1765],[98.0843,14.177],[98.0882,14.1821],[98.0916,14.1845],[98.0941,14.1917],[98.0946,14.1966],[98.0954,14.198],[98.0943,14.2033],[98.0846,14.214],[98.0848,14.2175],[98.0844,14.2186],[98.0833,14.2193],[98.0853,14.2201],[98.0935,14.2194],[98.0993,14.2155]]]]}}]}